SL-3 R/B                
1 13403U 82079B   26016.22069373  .00003474  00000+0  14096-3 0  9994
2 13403  81.1458 255.0049 0025252 346.4456  13.6095 15.24039423369705
SL-14 R/B               
1 13553U 82092B   26016.23161870  .00000414  00000+0  43748-4 0  9999
2 13553  82.5673 190.4520 0021760 113.6612  58.8449 14.86594928321131
SL-3 R/B                
1 13819U 83010B   26016.18511972  .00009006  00000+0  19274-3 0  9993
2 13819  81.1033  66.5393 0016365 226.1440 133.8453 15.44495183349830
SL-3 R/B                
1 14208U 83075B   26016.23763781  .00007723  00000+0  21413-3 0  9992
2 14208  97.6112  18.9019 0024220  59.9752 300.3890 15.36942573322092
COSMOS 1536             
1 14699U 84013A   26016.10817165  .00003958  00000+0  16634-3 0  9996
2 14699  82.5460 160.0687 0015688 106.6375 253.6586 15.23015452264612
SL-14 R/B               
1 14820U 84027B   26016.23628384  .00000351  00000+0  37263-4 0  9990
2 14820  82.5432 294.2098 0018829 143.0905 217.1611 14.85915873239841
SL-8 R/B                
1 15483U 85006B   26016.27183594  .00000235  00000+0  86631-4 0  9991
2 15483  74.0466 357.5964 0019784 284.1094 177.5476 14.37746715146492
SL-12 R/B(2)            
1 15772U 85042D   26016.23775448  .00000013  00000+0  27489-4 0  9993
2 15772  71.1064 198.5396 0036339 210.3991 322.3498 14.21962499106930
SL-14 R/B               
1 15945U 85069B   26016.23699325  .00000345  00000+0  36294-4 0  9995
2 15945  82.5254  74.2694 0019009  11.0434 349.1196 14.86365783165046
SL-16 R/B               
1 16182U 85097B   26016.11592734 -.00000135  00000+0 -43760-4 0  9998
2 16182  71.0018 251.2335 0008728 321.8762 192.9642 14.16592208 79784
SL-14 R/B               
1 16496U 86006B   26016.22756507  .00000544  00000+0  54840-4 0  9992
2 16496  82.5288 309.1044 0078285  86.6348 274.3820 14.86722951141419
COSMOS 1743             
1 16719U 86034A   26016.24913962  .00025762  00000+0  39042-3 0  9998
2 16719  82.5359 128.6878 0005431 124.6484 235.5282 15.54471631172093
