CCSDS_OMM_VERS = 2.0
CREATION_DATE  = 
ORIGINATOR     = 

OBJECT_NAME    = SL-3 R/B
OBJECT_ID      = 1982-079B
CENTER_NAME    = EARTH
REF_FRAME      = TEME
TIME_SYSTEM    = UTC
MEAN_ELEMENT_THEORY = SGP/SGP4

EPOCH          = 2026-01-16T05:17:47.938272
MEAN_MOTION    = 15.24039423
ECCENTRICITY   = .00252527
INCLINATION    = 81.1458
RA_OF_ASC_NODE = 255.0049
ARG_OF_PERICENTER = 346.4456
MEAN_ANOMALY   = 13.6095

EPHEMERIS_TYPE = 0
CLASSIFICATION_TYPE = U
NORAD_CAT_ID   = 13403
ELEMENT_SET_NO = 999
REV_AT_EPOCH   = 36970
BSTAR          = .14095958E-3
MEAN_MOTION_DOT = .3474E-4
MEAN_MOTION_DDOT = 0

CCSDS_OMM_VERS = 2.0
CREATION_DATE  = 
ORIGINATOR     = 

OBJECT_NAME    = SL-14 R/B
OBJECT_ID      = 1982-092B
CENTER_NAME    = EARTH
REF_FRAME      = TEME
TIME_SYSTEM    = UTC
MEAN_ELEMENT_THEORY = SGP/SGP4

EPOCH          = 2026-01-16T05:33:31.855680
MEAN_MOTION    = 14.86594928
ECCENTRICITY   = .00217609
INCLINATION    = 82.5673
RA_OF_ASC_NODE = 190.4520
ARG_OF_PERICENTER = 113.6612
MEAN_ANOMALY   = 58.8449

EPHEMERIS_TYPE = 0
CLASSIFICATION_TYPE = U
NORAD_CAT_ID   = 13553
ELEMENT_SET_NO = 999
REV_AT_EPOCH   = 32113
BSTAR          = .43747825E-4
MEAN_MOTION_DOT = .414E-5
MEAN_MOTION_DDOT = 0

CCSDS_OMM_VERS = 2.0
CREATION_DATE  = 
ORIGINATOR     = 

OBJECT_NAME    = SL-3 R/B
OBJECT_ID      = 1983-010B
CENTER_NAME    = EARTH
REF_FRAME      = TEME
TIME_SYSTEM    = UTC
MEAN_ELEMENT_THEORY = SGP/SGP4

EPOCH          = 2026-01-16T04:26:34.343808
MEAN_MOTION    = 15.44495183
ECCENTRICITY   = .00163657
INCLINATION    = 81.1033
RA_OF_ASC_NODE = 66.5393
ARG_OF_PERICENTER = 226.1440
MEAN_ANOMALY   = 133.8453

EPHEMERIS_TYPE = 0
CLASSIFICATION_TYPE = U
NORAD_CAT_ID   = 13819
ELEMENT_SET_NO = 999
REV_AT_EPOCH   = 34983
BSTAR          = .19273861E-3
MEAN_MOTION_DOT = .9006E-4
MEAN_MOTION_DDOT = 0

CCSDS_OMM_VERS = 2.0
CREATION_DATE  = 
ORIGINATOR     = 

OBJECT_NAME    = SL-3 R/B
OBJECT_ID      = 1983-075B
CENTER_NAME    = EARTH
REF_FRAME      = TEME
TIME_SYSTEM    = UTC
MEAN_ELEMENT_THEORY = SGP/SGP4

EPOCH          = 2026-01-16T05:42:11.906784
MEAN_MOTION    = 15.36942573
ECCENTRICITY   = .002422
INCLINATION    = 97.6112
RA_OF_ASC_NODE = 18.9019
ARG_OF_PERICENTER = 59.9752
MEAN_ANOMALY   = 300.3890

EPHEMERIS_TYPE = 0
CLASSIFICATION_TYPE = U
NORAD_CAT_ID   = 14208
ELEMENT_SET_NO = 999
REV_AT_EPOCH   = 32209
BSTAR          = .21412653E-3
MEAN_MOTION_DOT = .7723E-4
MEAN_MOTION_DDOT = 0

CCSDS_OMM_VERS = 2.0
CREATION_DATE  = 
ORIGINATOR     = 

OBJECT_NAME    = COSMOS 1536
OBJECT_ID      = 1984-013A
CENTER_NAME    = EARTH
REF_FRAME      = TEME
TIME_SYSTEM    = UTC
MEAN_ELEMENT_THEORY = SGP/SGP4

EPOCH          = 2026-01-16T02:35:46.030560
MEAN_MOTION    = 15.23015452
ECCENTRICITY   = .00156884
INCLINATION    = 82.5460
RA_OF_ASC_NODE = 160.0687
ARG_OF_PERICENTER = 106.6375
MEAN_ANOMALY   = 253.6586

EPHEMERIS_TYPE = 0
CLASSIFICATION_TYPE = U
NORAD_CAT_ID   = 14699
ELEMENT_SET_NO = 999
REV_AT_EPOCH   = 26461
BSTAR          = .16633663E-3
MEAN_MOTION_DOT = .3958E-4
MEAN_MOTION_DDOT = 0

CCSDS_OMM_VERS = 2.0
CREATION_DATE  = 
ORIGINATOR     = 

OBJECT_NAME    = SL-14 R/B
OBJECT_ID      = 1984-027B
CENTER_NAME    = EARTH
REF_FRAME      = TEME
TIME_SYSTEM    = UTC
MEAN_ELEMENT_THEORY = SGP/SGP4

EPOCH          = 2026-01-16T05:40:14.923776
MEAN_MOTION    = 14.85915873
ECCENTRICITY   = .00188293
INCLINATION    = 82.5432
RA_OF_ASC_NODE = 294.2098
ARG_OF_PERICENTER = 143.0905
MEAN_ANOMALY   = 217.1611

EPHEMERIS_TYPE = 0
CLASSIFICATION_TYPE = U
NORAD_CAT_ID   = 14820
ELEMENT_SET_NO = 999
REV_AT_EPOCH   = 23984
BSTAR          = .37263317E-4
MEAN_MOTION_DOT = .351E-5
MEAN_MOTION_DDOT = 0

CCSDS_OMM_VERS = 2.0
CREATION_DATE  = 
ORIGINATOR     = 

OBJECT_NAME    = SL-8 R/B
OBJECT_ID      = 1985-006B
CENTER_NAME    = EARTH
REF_FRAME      = TEME
TIME_SYSTEM    = UTC
MEAN_ELEMENT_THEORY = SGP/SGP4

EPOCH          = 2026-01-16T06:31:26.625216
MEAN_MOTION    = 14.37746715
ECCENTRICITY   = .00197844
INCLINATION    = 74.0466
RA_OF_ASC_NODE = 357.5964
ARG_OF_PERICENTER = 284.1094
MEAN_ANOMALY   = 177.5476

EPHEMERIS_TYPE = 0
CLASSIFICATION_TYPE = U
NORAD_CAT_ID   = 15483
ELEMENT_SET_NO = 999
REV_AT_EPOCH   = 14649
BSTAR          = .86630973E-4
MEAN_MOTION_DOT = .235E-5
MEAN_MOTION_DDOT = 0

CCSDS_OMM_VERS = 2.0
CREATION_DATE  = 
ORIGINATOR     = 

OBJECT_NAME    = SL-12 R/B(2)
OBJECT_ID      = 1985-042D
CENTER_NAME    = EARTH
REF_FRAME      = TEME
TIME_SYSTEM    = UTC
MEAN_ELEMENT_THEORY = SGP/SGP4

EPOCH          = 2026-01-16T05:42:21.987072
MEAN_MOTION    = 14.21962499
ECCENTRICITY   = .00363397
INCLINATION    = 71.1064
RA_OF_ASC_NODE = 198.5396
ARG_OF_PERICENTER = 210.3991
MEAN_ANOMALY   = 322.3498

EPHEMERIS_TYPE = 0
CLASSIFICATION_TYPE = U
NORAD_CAT_ID   = 15772
ELEMENT_SET_NO = 999
REV_AT_EPOCH   = 10693
BSTAR          = .27489038E-4
MEAN_MOTION_DOT = .13E-6
MEAN_MOTION_DDOT = 0

CCSDS_OMM_VERS = 2.0
CREATION_DATE  = 
ORIGINATOR     = 

OBJECT_NAME    = SL-14 R/B
OBJECT_ID      = 1985-069B
CENTER_NAME    = EARTH
REF_FRAME      = TEME
TIME_SYSTEM    = UTC
MEAN_ELEMENT_THEORY = SGP/SGP4

EPOCH          = 2026-01-16T05:41:16.216800
MEAN_MOTION    = 14.86365783
ECCENTRICITY   = .00190099
INCLINATION    = 82.5254
RA_OF_ASC_NODE = 74.2694
ARG_OF_PERICENTER = 11.0434
MEAN_ANOMALY   = 349.1196

EPHEMERIS_TYPE = 0
CLASSIFICATION_TYPE = U
NORAD_CAT_ID   = 15945
ELEMENT_SET_NO = 999
REV_AT_EPOCH   = 16504
BSTAR          = .36293602E-4
MEAN_MOTION_DOT = .345E-5
MEAN_MOTION_DDOT = 0

CCSDS_OMM_VERS = 2.0
CREATION_DATE  = 
ORIGINATOR     = 

OBJECT_NAME    = SL-16 R/B
OBJECT_ID      = 1985-097B
CENTER_NAME    = EARTH
REF_FRAME      = TEME
TIME_SYSTEM    = UTC
MEAN_ELEMENT_THEORY = SGP/SGP4

EPOCH          = 2026-01-16T02:46:56.122176
MEAN_MOTION    = 14.16592208
ECCENTRICITY   = .00087282
INCLINATION    = 71.0018
RA_OF_ASC_NODE = 251.2335
ARG_OF_PERICENTER = 321.8762
MEAN_ANOMALY   = 192.9642

EPHEMERIS_TYPE = 0
CLASSIFICATION_TYPE = U
NORAD_CAT_ID   = 16182
ELEMENT_SET_NO = 999
REV_AT_EPOCH   = 7978
BSTAR          = -.43760453E-4
MEAN_MOTION_DOT = -.135E-5
MEAN_MOTION_DDOT = 0

CCSDS_OMM_VERS = 2.0
CREATION_DATE  = 
ORIGINATOR     = 

OBJECT_NAME    = SL-14 R/B
OBJECT_ID      = 1986-006B
CENTER_NAME    = EARTH
REF_FRAME      = TEME
TIME_SYSTEM    = UTC
MEAN_ELEMENT_THEORY = SGP/SGP4

EPOCH          = 2026-01-16T05:27:41.622048
MEAN_MOTION    = 14.86722951
ECCENTRICITY   = .0078285
INCLINATION    = 82.5288
RA_OF_ASC_NODE = 309.1044
ARG_OF_PERICENTER = 86.6348
MEAN_ANOMALY   = 274.3820

EPHEMERIS_TYPE = 0
CLASSIFICATION_TYPE = U
NORAD_CAT_ID   = 16496
ELEMENT_SET_NO = 999
REV_AT_EPOCH   = 14141
BSTAR          = .54839978E-4
MEAN_MOTION_DOT = .544E-5
MEAN_MOTION_DDOT = 0

CCSDS_OMM_VERS = 2.0
CREATION_DATE  = 
ORIGINATOR     = 

OBJECT_NAME    = COSMOS 1743
OBJECT_ID      = 1986-034A
CENTER_NAME    = EARTH
REF_FRAME      = TEME
TIME_SYSTEM    = UTC
MEAN_ELEMENT_THEORY = SGP/SGP4

EPOCH          = 2026-01-16T05:58:45.663168
MEAN_MOTION    = 15.54471631
ECCENTRICITY   = .00054317
INCLINATION    = 82.5359
RA_OF_ASC_NODE = 128.6878
ARG_OF_PERICENTER = 124.6484
MEAN_ANOMALY   = 235.5282

EPHEMERIS_TYPE = 0
CLASSIFICATION_TYPE = U
NORAD_CAT_ID   = 16719
ELEMENT_SET_NO = 999
REV_AT_EPOCH   = 17209
BSTAR          = .39041564E-3
MEAN_MOTION_DOT = .25762E-3
MEAN_MOTION_DDOT = 0

